{
  "type": "FeatureCollection",
  "features": [
    {
      "type": "Feature",
      "properties": {
        "norad_id": 22490,
        "name": "SCD 1",
        "group": "resource",
        "lat": 17.692149400195053,
        "lon": 0.6125393263431786,
        "alt_km": 759.3205237337679,
        "timestamp": "2025-12-06T11:28:10.685524+00:00",
        "meta_object_name": "SCD 1",
        "meta_object_id": "1993-009B",
        "meta_epoch": "2025-12-05T23:49:15.755808",
        "meta_mean_motion": 14.45991298,
        "meta_eccentricity": 0.00417583,
        "meta_inclination": 24.9708,
        "meta_ra_of_asc_node": 320.3374,
        "meta_arg_of_pericenter": 253.2187,
        "meta_mean_anomaly": 140.9365,
        "meta_ephemeris_type": 0,
        "meta_classification_type": "U",
        "meta_norad_cat_id": 22490,
        "meta_element_set_no": 999,
        "meta_rev_at_epoch": 73312,
        "meta_bstar": 0.00017092271,
        "meta_mean_motion_dot": 8.12e-06,
        "meta_mean_motion_ddot": 0,
        "tle_line1": "1 22490U 93009B   25339.99254347  .00000812  00000+0  17092-3 0  9995",
        "tle_line2": "2 22490  24.9708 320.3374 0041758 253.2187 140.9365 14.45991298733120"
      },
      "geometry": {
        "type": "Point",
        "coordinates": [
          0.6125393263431786,
          17.692149400195053
        ]
      }
    },
    {
      "type": "Feature",
      "properties": {
        "norad_id": 25397,
        "name": "TECHSAT 1B (GO-32)",
        "group": "resource",
        "lat": 60.68103043249069,
        "lon": 159.92054688908692,
        "alt_km": 803.6705068564061,
        "timestamp": "2025-12-06T11:28:10.685555+00:00",
        "meta_object_name": "TECHSAT 1B (GO-32)",
        "meta_object_id": "1998-043D",
        "meta_epoch": "2025-12-05T23:06:59.931360",
        "meta_mean_motion": 14.24374078,
        "meta_eccentricity": 0.00021938,
        "meta_inclination": 98.9913,
        "meta_ra_of_asc_node": 323.0191,
        "meta_arg_of_pericenter": 68.3307,
        "meta_mean_anomaly": 291.8105,
        "meta_ephemeris_type": 0,
        "meta_classification_type": "U",
        "meta_norad_cat_id": 25397,
        "meta_element_set_no": 999,
        "meta_rev_at_epoch": 42382,
        "meta_bstar": 0.00010199191,
        "meta_mean_motion_dot": 1.89e-06,
        "meta_mean_motion_ddot": 0,
        "tle_line1": "1 25397U 98043D   25339.96319365  .00000189  00000+0  10199-3 0  9994",
        "tle_line2": "2 25397  98.9913 323.0191 0002193  68.3307 291.8105 14.24374078423823"
      },
      "geometry": {
        "type": "Point",
        "coordinates": [
          159.92054688908692,
          60.68103043249069
        ]
      }
    },
    {
      "type": "Feature",
      "properties": {
        "norad_id": 25504,
        "name": "SCD 2",
        "group": "resource",
        "lat": 24.97593897292596,
        "lon": -88.49912165581402,
        "alt_km": 745.7292631897226,
        "timestamp": "2025-12-06T11:28:10.685571+00:00",
        "meta_object_name": "SCD 2",
        "meta_object_id": "1998-060A",
        "meta_epoch": "2025-12-05T21:53:57.393312",
        "meta_mean_motion": 14.45417367,
        "meta_eccentricity": 0.00166159,
        "meta_inclination": 24.9935,
        "meta_ra_of_asc_node": 183.9949,
        "meta_arg_of_pericenter": 240.5179,
        "meta_mean_anomaly": 142.2596,
        "meta_ephemeris_type": 0,
        "meta_classification_type": "U",
        "meta_norad_cat_id": 25504,
        "meta_element_set_no": 999,
        "meta_rev_at_epoch": 43233,
        "meta_bstar": 0.00012779521,
        "meta_mean_motion_dot": 6.4e-06,
        "meta_mean_motion_ddot": 0,
        "tle_line1": "1 25504U 98060A   25339.91246983  .00000640  00000+0  12780-3 0  9993",
        "tle_line2": "2 25504  24.9935 183.9949 0016615 240.5179 142.2596 14.45417367432336"
      },
      "geometry": {
        "type": "Point",
        "coordinates": [
          -88.49912165581402,
          24.97593897292596
        ]
      }
    },
    {
      "type": "Feature",
      "properties": {
        "norad_id": 25757,
        "name": "DLR-TUBSAT",
        "group": "resource",
        "lat": 64.9585587611827,
        "lon": -54.23092120184597,
        "alt_km": 719.5700802223082,
        "timestamp": "2025-12-06T11:28:10.685584+00:00",
        "meta_object_name": "DLR-TUBSAT",
        "meta_object_id": "1999-029B",
        "meta_epoch": "2025-12-05T21:56:11.561280",
        "meta_mean_motion": 14.52353508,
        "meta_eccentricity": 0.00135271,
        "meta_inclination": 98.6556,
        "meta_ra_of_asc_node": 324.2173,
        "meta_arg_of_pericenter": 214.2202,
        "meta_mean_anomaly": 145.8122,
        "meta_ephemeris_type": 0,
        "meta_classification_type": "U",
        "meta_norad_cat_id": 25757,
        "meta_element_set_no": 999,
        "meta_rev_at_epoch": 40519,
        "meta_bstar": 7.8429475e-05,
        "meta_mean_motion_dot": 2.71e-06,
        "meta_mean_motion_ddot": 0,
        "tle_line1": "1 25757U 99029B   25339.91402270  .00000271  00000+0  78429-4 0  9995",
        "tle_line2": "2 25757  98.6556 324.2173 0013527 214.2202 145.8122 14.52353508405198"
      },
      "geometry": {
        "type": "Point",
        "coordinates": [
          -54.23092120184597,
          64.9585587611827
        ]
      }
    },
    {
      "type": "Feature",
      "properties": {
        "norad_id": 25994,
        "name": "TERRA",
        "group": "resource",
        "lat": -61.59918839488087,
        "lon": 47.41992601330626,
        "alt_km": 699.7422767560129,
        "timestamp": "2025-12-06T11:28:10.685597+00:00",
        "meta_object_name": "TERRA",
        "meta_object_id": "1999-068A",
        "meta_epoch": "2025-12-05T23:04:05.507904",
        "meta_mean_motion": 14.60940531,
        "meta_eccentricity": 0.00034778,
        "meta_inclination": 97.9758,
        "meta_ra_of_asc_node": 31.8941,
        "meta_arg_of_pericenter": 111.4486,
        "meta_mean_anomaly": 349.9212,
        "meta_ephemeris_type": 0,
        "meta_classification_type": "U",
        "meta_norad_cat_id": 25994,
        "meta_element_set_no": 999,
        "meta_rev_at_epoch": 38139,
        "meta_bstar": 0.00020770695,
        "meta_mean_motion_dot": 9.73e-06,
        "meta_mean_motion_ddot": 0,
        "tle_line1": "1 25994U 99068A   25339.96117486  .00000973  00000+0  20771-3 0  9993",
        "tle_line2": "2 25994  97.9758  31.8941 0003477 111.4486 349.9212 14.60940531381395"
      },
      "geometry": {
        "type": "Point",
        "coordinates": [
          47.41992601330626,
          -61.59918839488087
        ]
      }
    },
    {
      "type": "Feature",
      "properties": {
        "norad_id": 27004,
        "name": "MAROC-TUBSAT",
        "group": "resource",
        "lat": 13.565697535604029,
        "lon": -28.79917245127233,
        "alt_km": 1004.5252394368072,
        "timestamp": "2025-12-06T11:28:10.685610+00:00",
        "meta_object_name": "MAROC-TUBSAT",
        "meta_object_id": "2001-056D",
        "meta_epoch": "2025-12-05T22:57:33.302016",
        "meta_mean_motion": 13.70252401,
        "meta_eccentricity": 0.00190929,
        "meta_inclination": 99.7911,
        "meta_ra_of_asc_node": 148.2828,
        "meta_arg_of_pericenter": 278.2131,
        "meta_mean_anomaly": 198.09,
        "meta_ephemeris_type": 0,
        "meta_classification_type": "U",
        "meta_norad_cat_id": 27004,
        "meta_element_set_no": 999,
        "meta_rev_at_epoch": 19972,
        "meta_bstar": 3.6745108e-05,
        "meta_mean_motion_dot": -1.4e-07,
        "meta_mean_motion_ddot": 0,
        "tle_line1": "1 27004U 01056D   25339.95663544 -.00000014  00000+0  36745-4 0  9993",
        "tle_line2": "2 27004  99.7911 148.2828 0019092 278.2131 198.0900 13.70252401199729"
      },
      "geometry": {
        "type": "Point",
        "coordinates": [
          -28.79917245127233,
          13.565697535604029
        ]
      }
    },
    {
      "type": "Feature",
      "properties": {
        "norad_id": 27424,
        "name": "AQUA",
        "group": "resource",
        "lat": 27.181787430098748,
        "lon": 125.60849411165123,
        "alt_km": 685.8618385003256,
        "timestamp": "2025-12-06T11:28:10.685622+00:00",
        "meta_object_name": "AQUA",
        "meta_object_id": "2002-022A",
        "meta_epoch": "2025-12-05T21:55:12.842976",
        "meta_mean_motion": 14.61783779,
        "meta_eccentricity": 8.712e-05,
        "meta_inclination": 98.4027,
        "meta_ra_of_asc_node": 300.6816,
        "meta_arg_of_pericenter": 113.0911,
        "meta_mean_anomaly": 310.1076,
        "meta_ephemeris_type": 0,
        "meta_classification_type": "U",
        "meta_norad_cat_id": 27424,
        "meta_element_set_no": 999,
        "meta_rev_at_epoch": 25503,
        "meta_bstar": 0.00048201288,
        "meta_mean_motion_dot": 2.356e-05,
        "meta_mean_motion_ddot": 0,
        "tle_line1": "1 27424U 02022A   25339.91334309  .00002356  00000+0  48201-3 0  9992",
        "tle_line2": "2 27424  98.4027 300.6816 0000871 113.0911 310.1076 14.61783779255033"
      },
      "geometry": {
        "type": "Point",
        "coordinates": [
          125.60849411165123,
          27.181787430098748
        ]
      }
    }
  ]
}